{
  "type": "FeatureCollection",
  "features": [
    {
      "type": "Feature",
      "properties": {
        "norad_id": 66625,
        "name": "STARLINK-35929",
        "group": "last-30-days",
        "lat": 1.6446579059739463,
        "lon": 13.32995098275678,
        "alt_km": 398.1556874248636,
        "timestamp": "2025-12-11T05:00:25.075992+00:00",
        "meta_object_name": "STARLINK-35929",
        "meta_object_id": "2025-271J",
        "meta_epoch": "2025-12-10T22:00:03.000096",
        "meta_mean_motion": 15.57894469,
        "meta_eccentricity": 8.651e-05,
        "meta_inclination": 53.1602,
        "meta_ra_of_asc_node": 195.9763,
        "meta_arg_of_pericenter": 94.9614,
        "meta_mean_anomaly": 245.4075,
        "meta_ephemeris_type": 0,
        "meta_classification_type": "U",
        "meta_norad_cat_id": 66625,
        "meta_element_set_no": 999,
        "meta_rev_at_epoch": 395,
        "meta_bstar": -0.030488624,
        "meta_mean_motion_dot": -0.02067368,
        "meta_mean_motion_ddot": 0,
        "tle_line1": "1 66625U 25271J   25344.91670139 -.02067368  00000+0 -30489-1 0  9994",
        "tle_line2": "2 66625  53.1602 195.9763 0000865  94.9614 245.4075 15.57894469  3958"
      },
      "geometry": {
        "type": "Point",
        "coordinates": [
          13.32995098275678,
          1.6446579059739463
        ]
      }
    },
    {
      "type": "Feature",
      "properties": {
        "norad_id": 66626,
        "name": "STARLINK-35902",
        "group": "last-30-days",
        "lat": 0.11175031459924745,
        "lon": 14.47582926528413,
        "alt_km": 398.4955620188148,
        "timestamp": "2025-12-11T05:00:25.076004+00:00",
        "meta_object_name": "STARLINK-35902",
        "meta_object_id": "2025-271K",
        "meta_epoch": "2025-12-10T22:00:03.000096",
        "meta_mean_motion": 15.57892442,
        "meta_eccentricity": 7.983e-05,
        "meta_inclination": 53.16,
        "meta_ra_of_asc_node": 195.9725,
        "meta_arg_of_pericenter": 87.8737,
        "meta_mean_anomaly": 254.4124,
        "meta_ephemeris_type": 0,
        "meta_classification_type": "U",
        "meta_norad_cat_id": 66626,
        "meta_element_set_no": 999,
        "meta_rev_at_epoch": 395,
        "meta_bstar": -0.030442866,
        "meta_mean_motion_dot": -0.02064416,
        "meta_mean_motion_ddot": 0,
        "tle_line1": "1 66626U 25271K   25344.91670139 -.02064416  00000+0 -30443-1 0  9996",
        "tle_line2": "2 66626  53.1600 195.9725 0000798  87.8737 254.4124 15.57892442  3951"
      },
      "geometry": {
        "type": "Point",
        "coordinates": [
          14.47582926528413,
          0.11175031459924745
        ]
      }
    },
    {
      "type": "Feature",
      "properties": {
        "norad_id": 66627,
        "name": "STARLINK-35904",
        "group": "last-30-days",
        "lat": -1.4232049547114294,
        "lon": 15.622799387436578,
        "alt_km": 398.8108883433433,
        "timestamp": "2025-12-11T05:00:25.076014+00:00",
        "meta_object_name": "STARLINK-35904",
        "meta_object_id": "2025-271L",
        "meta_epoch": "2025-12-10T22:00:03.000096",
        "meta_mean_motion": 15.57895971,
        "meta_eccentricity": 8.724e-05,
        "meta_inclination": 53.1601,
        "meta_ra_of_asc_node": 195.9684,
        "meta_arg_of_pericenter": 82.2935,
        "meta_mean_anomaly": 261.9082,
        "meta_ephemeris_type": 0,
        "meta_classification_type": "U",
        "meta_norad_cat_id": 66627,
        "meta_element_set_no": 999,
        "meta_rev_at_epoch": 379,
        "meta_bstar": -0.030516966,
        "meta_mean_motion_dot": -0.02069193,
        "meta_mean_motion_ddot": 0,
        "tle_line1": "1 66627U 25271L   25344.91670139 -.02069193  00000+0 -30517-1 0  9996",
        "tle_line2": "2 66627  53.1601 195.9684 0000872  82.2935 261.9082 15.57895971  3797"
      },
      "geometry": {
        "type": "Point",
        "coordinates": [
          15.622799387436578,
          -1.4232049547114294
        ]
      }
    },
    {
      "type": "Feature",
      "properties": {
        "norad_id": 66628,
        "name": "STARLINK-35862",
        "group": "last-30-days",
        "lat": -2.956907317157121,
        "lon": 16.7708962408058,
        "alt_km": 398.87518582468147,
        "timestamp": "2025-12-11T05:00:25.076024+00:00",
        "meta_object_name": "STARLINK-35862",
        "meta_object_id": "2025-271M",
        "meta_epoch": "2025-12-10T22:00:03.000096",
        "meta_mean_motion": 15.57892887,
        "meta_eccentricity": 9.275e-05,
        "meta_inclination": 53.1601,
        "meta_ra_of_asc_node": 195.9644,
        "meta_arg_of_pericenter": 92.5412,
        "meta_mean_anomaly": 253.579,
        "meta_ephemeris_type": 0,
        "meta_classification_type": "U",
        "meta_norad_cat_id": 66628,
        "meta_element_set_no": 999,
        "meta_rev_at_epoch": 395,
        "meta_bstar": -0.030451612,
        "meta_mean_motion_dot": -0.02065056,
        "meta_mean_motion_ddot": 0,
        "tle_line1": "1 66628U 25271M   25344.91670139 -.02065056  00000+0 -30452-1 0  9999",
        "tle_line2": "2 66628  53.1601 195.9644 0000927  92.5412 253.5790 15.57892887  3953"
      },
      "geometry": {
        "type": "Point",
        "coordinates": [
          16.7708962408058,
          -2.956907317157121
        ]
      }
    },
    {
      "type": "Feature",
      "properties": {
        "norad_id": 66629,
        "name": "STARLINK-35956",
        "group": "last-30-days",
        "lat": -4.487901906635594,
        "lon": 17.921528067237123,
        "alt_km": 399.08041889557626,
        "timestamp": "2025-12-11T05:00:25.076033+00:00",
        "meta_object_name": "STARLINK-35956",
        "meta_object_id": "2025-271N",
        "meta_epoch": "2025-12-10T22:00:03.000096",
        "meta_mean_motion": 15.5789351,
        "meta_eccentricity": 8.847e-05,
        "meta_inclination": 53.1602,
        "meta_ra_of_asc_node": 195.9609,
        "meta_arg_of_pericenter": 93.3864,
        "meta_mean_anomaly": 254.6498,
        "meta_ephemeris_type": 0,
        "meta_classification_type": "U",
        "meta_norad_cat_id": 66629,
        "meta_element_set_no": 999,
        "meta_rev_at_epoch": 395,
        "meta_bstar": -0.030467609,
        "meta_mean_motion_dot": -0.02066041,
        "meta_mean_motion_ddot": 0,
        "tle_line1": "1 66629U 25271N   25344.91670139 -.02066041  00000+0 -30468-1 0  9992",
        "tle_line2": "2 66629  53.1602 195.9609 0000884  93.3864 254.6498 15.57893510  3959"
      },
      "geometry": {
        "type": "Point",
        "coordinates": [
          17.921528067237123,
          -4.487901906635594
        ]
      }
    },
    {
      "type": "Feature",
      "properties": {
        "norad_id": 66630,
        "name": "STARLINK-35949",
        "group": "last-30-days",
        "lat": -6.016919177263228,
        "lon": 19.075105021117885,
        "alt_km": 399.3030554435645,
        "timestamp": "2025-12-11T05:00:25.076043+00:00",
        "meta_object_name": "STARLINK-35949",
        "meta_object_id": "2025-271P",
        "meta_epoch": "2025-12-10T22:00:03.000096",
        "meta_mean_motion": 15.5789564,
        "meta_eccentricity": 8.058e-05,
        "meta_inclination": 53.1601,
        "meta_ra_of_asc_node": 195.9556,
        "meta_arg_of_pericenter": 92.237,
        "meta_mean_anomaly": 257.7139,
        "meta_ephemeris_type": 0,
        "meta_classification_type": "U",
        "meta_norad_cat_id": 66630,
        "meta_element_set_no": 999,
        "meta_rev_at_epoch": 395,
        "meta_bstar": -0.030479128,
        "meta_mean_motion_dot": -0.02066839,
        "meta_mean_motion_ddot": 0,
        "tle_line1": "1 66630U 25271P   25344.91670139 -.02066839  00000+0 -30479-1 0  9991",
        "tle_line2": "2 66630  53.1601 195.9556 0000805  92.2370 257.7139 15.57895640  3956"
      },
      "geometry": {
        "type": "Point",
        "coordinates": [
          19.075105021117885,
          -6.016919177263228
        ]
      }
    },
    {
      "type": "Feature",
      "properties": {
        "norad_id": 66631,
        "name": "STARLINK-35965",
        "group": "last-30-days",
        "lat": -7.544401835101053,
        "lon": 20.23823828969514,
        "alt_km": 399.53627352404783,
        "timestamp": "2025-12-11T05:00:25.076053+00:00",
        "meta_object_name": "STARLINK-35965",
        "meta_object_id": "2025-271Q",
        "meta_epoch": "2025-12-10T22:00:03.000096",
        "meta_mean_motion": 15.5789379,
        "meta_eccentricity": 8.14e-05,
        "meta_inclination": 53.16,
        "meta_ra_of_asc_node": 195.9526,
        "meta_arg_of_pericenter": 90.6571,
        "meta_mean_anomaly": 261.2123,
        "meta_ephemeris_type": 0,
        "meta_classification_type": "U",
        "meta_norad_cat_id": 66631,
        "meta_element_set_no": 999,
        "meta_rev_at_epoch": 395,
        "meta_bstar": -0.030462594,
        "meta_mean_motion_dot": -0.02065714,
        "meta_mean_motion_ddot": 0,
        "tle_line1": "1 66631U 25271Q   25344.91670139 -.02065714  00000+0 -30463-1 0  9996",
        "tle_line2": "2 66631  53.1600 195.9526 0000814  90.6571 261.2123 15.57893790  3955"
      },
      "geometry": {
        "type": "Point",
        "coordinates": [
          20.23823828969514,
          -7.544401835101053
        ]
      }
    }
  ]
}